OBJECT_NAME,OBJECT_ID,EPOCH,MEAN_MOTION,ECCENTRICITY,INCLINATION,RA_OF_ASC_NODE,ARG_OF_PERICENTER,MEAN_ANOMALY,EPHEMERIS_TYPE,CLASSIFICATION_TYPE,NORAD_CAT_ID,ELEMENT_SET_NO,REV_AT_EPOCH,BSTAR,MEAN_MOTION_DOT,MEAN_MOTION_DDOT
HORN-L,2026-132D,2026-07-08T19:27:16.151040,15.10520653,.00238519,97.6831,253.4199,230.4947,129.4174,0,U,69505,999,403,.14583196E-3,.2351E-4,0
VERTECS,2026-132E,2026-07-09T03:34:41.306016,15.00977783,.0015053,97.6832,253.6062,226.9007,133.0959,0,U,69506,999,406,.94203834E-4,.1144E-4,0
HORN-R,2026-132F,2026-07-09T05:52:39.222624,15.05412613,.00175938,97.6876,253.7714,225.6049,134.3738,0,U,69507,999,408,.76701339E-4,.104E-4,0
STARLINK-37536,2026-133A,2026-07-08T08:29:01.403808,15.49363079,.00006769,53.1600,217.5626,68.1109,291.9972,0,U,69508,999,409,.57055693E-3,.31472E-3,0
STARLINK-37341,2026-133B,2026-07-09T01:33:29.526912,15.49327281,.00019922,53.1601,214.1845,91.9868,268.1369,0,U,69509,999,421,.50249064E-3,.27615E-3,0
STARLINK-36536,2026-133C,2026-07-09T06:00:02.000160,15.48050558,.00009684,53.1603,212.5550,96.8861,224.6643,0,U,69510,999,546,-.18898553E-1,-.924323E-2,0
STARLINK-37420,2026-133D,2026-07-09T06:00:02.000160,15.48190603,.00010708,53.1601,212.2909,63.6575,26.9582,0,U,69511,999,541,-.53649168E-1,-.2537675E-1,0
STARLINK-37511,2026-133E,2026-07-09T06:00:02.000160,15.48129579,.00010101,53.1600,212.3292,67.7101,4.8551,0,U,69512,999,541,-.50838684E-1,-.2414759E-1,0
STARLINK-37552,2026-133F,2026-07-08T08:30:51.772032,15.49349249,.00043702,53.1597,217.5694,85.8702,274.2806,0,U,69513,999,536,.5478097E-3,.30187E-3,0
STARLINK-37607,2026-133G,2026-07-09T06:00:02.000160,15.45454804,.00009292,53.1599,212.3853,95.3236,308.5814,0,U,69514,999,541,-.57642993E-1,-.2484822E-1,0
STARLINK-37232,2026-133H,2026-07-08T11:00:58.406112,15.49325221,.00013994,53.1595,216.7906,80.6678,279.4490,0,U,69515,999,411,.67510461E-3,.37299E-3,0
STARLINK-37323,2026-133J,2026-07-09T06:00:02.000160,15.46796050,.00015456,53.1597,212.1637,74.6905,77.7449,0,U,69516,999,541,-.21752266E-1,-.1010185E-1,0
STARLINK-37357,2026-133K,2026-07-08T08:29:49.696224,15.49378527,.00005047,53.1589,217.5621,270.2321,89.8630,0,U,69517,999,535,.55673135E-3,.30712E-3,0
STARLINK-37408,2026-133L,2026-07-09T06:00:02.000160,15.49297599,.00016059,53.1604,212.5423,46.6711,278.2835,0,U,69518,999,541,.10681363E-3,.5494E-4,0
STARLINK-37570,2026-133M,2026-07-08T00:00:02.000160,15.49281491,.00009923,53.1601,219.0110,86.0657,217.7361,0,U,69519,999,521,.11886559E-2,.66157E-3,0
STARLINK-37510,2026-133N,2026-07-08T01:40:45.300000,15.49334972,.00008679,53.1599,218.6262,101.4638,258.6469,0,U,69520,999,532,.73075761E-3,.40441E-3,0
STARLINK-37586,2026-133P,2026-07-09T06:00:02.000160,15.44842564,.00017925,53.1590,212.0482,82.5794,124.7282,0,U,69521,999,541,-.59219416E-1,-.2498357E-1,0
STARLINK-37379,2026-133Q,2026-07-09T00:00:02.000160,15.49273609,.00017889,53.1602,213.8687,91.2468,211.2585,0,U,69522,999,542,.12185958E-2,.67832E-3,0
STARLINK-37429,2026-133R,2026-07-08T08:06:58.573152,15.49434063,.0001624,53.1600,217.4542,94.7805,265.3389,0,U,69523,999,536,.94937897E-3,.52945E-3,0
STARLINK-37352,2026-133S,2026-07-09T00:00:02.000160,15.49272514,.00012632,53.1602,213.8514,97.8675,212.3724,0,U,69524,999,542,.12445874E-2,.69298E-3,0
STARLINK-37490,2026-133T,2026-07-09T06:00:02.000160,15.49308493,.00009078,53.1595,212.1911,35.5521,99.1151,0,U,69525,999,546,.17395728E-3,.9238E-4,0
STARLINK-37438,2026-133U,2026-07-09T06:44:40.678368,15.49319252,.00009913,53.1598,212.6657,76.8075,283.3044,0,U,69526,999,551,.11376879E-3,.5886E-4,0
STARLINK-37484,2026-133V,2026-07-09T06:00:02.000160,15.48828776,.00015546,53.1596,212.0979,101.1109,79.4521,0,U,69527,999,546,-.53739697E-1,-.2592951E-1,0
STARLINK-37523,2026-133W,2026-07-09T00:00:02.000160,15.49272696,.00012712,53.1603,213.8178,100.9605,224.6894,0,U,69528,999,542,.12482556E-2,.69505E-3,0
STARLINK-37369,2026-133X,2026-07-09T01:36:44.283744,15.49372515,.00008839,53.1595,213.4562,85.2899,274.8211,0,U,69529,999,548,.59543442E-3,.32881E-3,0
STARLINK-37670,2026-133Y,2026-07-08T08:56:30.162048,15.49350315,.00007696,53.1602,216.9443,318.3905,41.7046,0,U,69530,999,537,.54871081E-3,.30231E-3,0
STARLINK-37897,2026-133Z,2026-07-09T06:00:02.000160,15.49357703,.00013633,53.1599,212.0752,23.3949,165.8619,0,U,69531,999,542,.36960196E-3,.20196E-3,0
STARLINK-37933,2026-133AA,2026-07-09T06:00:02.000160,15.38501498,.00022818,53.1607,212.5498,112.5680,201.1108,0,U,69532,999,542,-.12323103E+0,-.4094199E-1,0
STARLINK-37890,2026-133AB,2026-07-09T06:00:02.000160,15.34392371,.0001484,53.1600,212.4505,90.5094,270.7747,0,U,69533,999,542,-.46199377E-3,-.15949E-3,0
STARLINK-37407,2026-133AC,2026-07-09T06:00:02.000160,15.33541198,.00015668,53.1600,212.2847,91.2690,351.2408,0,U,69534,999,547,-.34545617E-3,-.11714E-3,0
