HORN-L                  
1 69505U 26132D   26189.81060360  .00002351  00000+0  14583-3 0  9993
2 69505  97.6831 253.4199 0023851 230.4947 129.4174 15.10520653  4035
VERTECS                 
1 69506U 26132E   26190.14908919  .00001144  00000+0  94204-4 0  9991
2 69506  97.6832 253.6062 0015053 226.9007 133.0959 15.00977783  4064
HORN-R                  
1 69507U 26132F   26190.24489841  .00001040  00000+0  76701-4 0  9998
2 69507  97.6876 253.7714 0017593 225.6049 134.3738 15.05412613  4083
STARLINK-37536          
1 69508U 26133A   26189.35348847  .00031472  00000+0  57056-3 0  9993
2 69508  53.1600 217.5626 0000676  68.1109 291.9972 15.49363079  4097
STARLINK-37341          
1 69509U 26133B   26190.06492508  .00027615  00000+0  50249-3 0  9999
2 69509  53.1601 214.1845 0001992  91.9868 268.1369 15.49327281  4218
STARLINK-36536          
1 69510U 26133C   26190.25002315 -.00924323  00000+0 -18899-1 0  9992
2 69510  53.1603 212.5550 0000968  96.8861 224.6643 15.48050558  5465
STARLINK-37420          
1 69511U 26133D   26190.25002315 -.02537675  00000+0 -53649-1 0  9997
2 69511  53.1601 212.2909 0001070  63.6575  26.9582 15.48190603  5414
STARLINK-37511          
1 69512U 26133E   26190.25002315 -.02414759  00000+0 -50839-1 0  9993
2 69512  53.1600 212.3292 0001010  67.7101   4.8551 15.48129579  5419
STARLINK-37552          
1 69513U 26133F   26189.35476588  .00030187  00000+0  54781-3 0  9997
2 69513  53.1597 217.5694 0004370  85.8702 274.2806 15.49349249  5367
STARLINK-37607          
1 69514U 26133G   26190.25002315 -.02484822  00000+0 -57643-1 0  9993
2 69514  53.1599 212.3853 0000929  95.3236 308.5814 15.45454804  5410
STARLINK-37232          
1 69515U 26133H   26189.45900933  .00037299  00000+0  67510-3 0  9991
2 69515  53.1595 216.7906 0001399  80.6678 279.4490 15.49325221  4119
STARLINK-37323          
1 69516U 26133J   26190.25002315 -.01010185  00000+0 -21752-1 0  9993
2 69516  53.1597 212.1637 0001545  74.6905  77.7449 15.46796050  5418
STARLINK-37357          
1 69517U 26133K   26189.35404741  .00030712  00000+0  55673-3 0  9998
2 69517  53.1589 217.5621 0000504 270.2321  89.8630 15.49378527  5359
STARLINK-37408          
1 69518U 26133L   26190.25002315  .00005494  00000+0  10681-3 0  9990
2 69518  53.1604 212.5423 0001605  46.6711 278.2835 15.49297599  5411
STARLINK-37570          
1 69519U 26133M   26189.00002315  .00066157  00000+0  11887-2 0  9993
2 69519  53.1601 219.0110 0000992  86.0657 217.7361 15.49281491  5213
STARLINK-37510          
1 69520U 26133N   26189.06996875  .00040441  00000+0  73076-3 0  9991
2 69520  53.1599 218.6262 0000867 101.4638 258.6469 15.49334972  5324
STARLINK-37586          
1 69521U 26133P   26190.25002315 -.02498357  00000+0 -59219-1 0  9990
2 69521  53.1590 212.0482 0001792  82.5794 124.7282 15.44842564  5410
STARLINK-37379          
1 69522U 26133Q   26190.00002315  .00067832  00000+0  12186-2 0  9993
2 69522  53.1602 213.8687 0001788  91.2468 211.2585 15.49273609  5423
STARLINK-37429          
1 69523U 26133R   26189.33817793  .00052945  00000+0  94938-3 0  9997
2 69523  53.1600 217.4542 0001624  94.7805 265.3389 15.49434063  5362
STARLINK-37352          
1 69524U 26133S   26190.00002315  .00069298  00000+0  12446-2 0  9992
2 69524  53.1602 213.8514 0001263  97.8675 212.3724 15.49272514  5425
STARLINK-37490          
1 69525U 26133T   26190.25002315  .00009238  00000+0  17396-3 0  9998
2 69525  53.1595 212.1911 0000907  35.5521  99.1151 15.49308493  5468
STARLINK-37438          
1 69526U 26133U   26190.28102637  .00005886  00000+0  11377-3 0  9998
2 69526  53.1598 212.6657 0000991  76.8075 283.3044 15.49319252  5518
STARLINK-37484          
1 69527U 26133V   26190.25002315 -.02592951  00000+0 -53740-1 0  9994
2 69527  53.1596 212.0979 0001554 101.1109  79.4521 15.48828776  5467
STARLINK-37523          
1 69528U 26133W   26190.00002315  .00069505  00000+0  12483-2 0  9998
2 69528  53.1603 213.8178 0001271 100.9605 224.6894 15.49272696  5429
STARLINK-37369          
1 69529U 26133X   26190.06717921  .00032881  00000+0  59543-3 0  9997
2 69529  53.1595 213.4562 0000883  85.2899 274.8211 15.49372515  5488
STARLINK-37670          
1 69530U 26133Y   26189.37257132  .00030231  00000+0  54871-3 0  9990
2 69530  53.1602 216.9443 0000769 318.3905  41.7046 15.49350315  5375
STARLINK-37897          
1 69531U 26133Z   26190.25002315  .00020196  00000+0  36960-3 0  9999
2 69531  53.1599 212.0752 0001363  23.3949 165.8619 15.49357703  5421
STARLINK-37933          
1 69532U 26133AA  26190.25002315 -.04094199  00000+0 -12323+0 0  9993
2 69532  53.1607 212.5498 0002281 112.5680 201.1108 15.38501498  5424
STARLINK-37890          
1 69533U 26133AB  26190.25002315 -.00015949  00000+0 -46199-3 0  9998
2 69533  53.1600 212.4505 0001484  90.5094 270.7747 15.34392371  5429
STARLINK-37407          
1 69534U 26133AC  26190.25002315 -.00011714  00000+0 -34546-3 0  9998
2 69534  53.1600 212.2847 0001566  91.2690 351.2408 15.33541198  5474
